{
  "type": "FeatureCollection",
  "features": [
    {
      "type": "Feature",
      "properties": {
        "norad_id": 44333,
        "name": "AT&T T-16",
        "group": "intelsat",
        "lat": 0.009359388166253911,
        "lon": 48.298533419159284,
        "alt_km": 35789.68155770725,
        "timestamp": "2025-12-21T03:56:50.522312+00:00",
        "meta_object_name": "AT&T T-16",
        "meta_object_id": "2019-034A",
        "meta_epoch": "2025-12-20T14:27:46.526112",
        "meta_mean_motion": 1.00263761,
        "meta_eccentricity": 0.0001552,
        "meta_inclination": 0.019,
        "meta_ra_of_asc_node": 58.344,
        "meta_arg_of_pericenter": 92.0528,
        "meta_mean_anomaly": 55.1236,
        "meta_ephemeris_type": 0,
        "meta_classification_type": "U",
        "meta_norad_cat_id": 44333,
        "meta_element_set_no": 999,
        "meta_rev_at_epoch": 2384,
        "meta_bstar": 0,
        "meta_mean_motion_dot": -9.1e-07,
        "meta_mean_motion_ddot": 0,
        "tle_line1": "1 44333U 19034A   25354.60262183 -.00000091  00000+0  00000+0 0  9990",
        "tle_line2": "2 44333   0.0190  58.3440 0001552  92.0528  55.1236  1.00263761 23847"
      },
      "geometry": {
        "type": "Point",
        "coordinates": [
          48.298533419159284,
          0.009359388166253911
        ]
      }
    },
    {
      "type": "Feature",
      "properties": {
        "norad_id": 44476,
        "name": "INTELSAT 39 (IS-39)",
        "group": "intelsat",
        "lat": -0.02540169263745342,
        "lon": -148.86320274817027,
        "alt_km": 35785.722540962495,
        "timestamp": "2025-12-21T03:56:50.522323+00:00",
        "meta_object_name": "INTELSAT 39 (IS-39)",
        "meta_object_id": "2019-049B",
        "meta_epoch": "2025-12-20T20:40:48.275040",
        "meta_mean_motion": 1.00269667,
        "meta_eccentricity": 0.0001038,
        "meta_inclination": 0.0243,
        "meta_ra_of_asc_node": 2.9456,
        "meta_arg_of_pericenter": 130.8681,
        "meta_mean_anomaly": 328.0147,
        "meta_ephemeris_type": 0,
        "meta_classification_type": "U",
        "meta_norad_cat_id": 44476,
        "meta_element_set_no": 999,
        "meta_rev_at_epoch": 2334,
        "meta_bstar": 0,
        "meta_mean_motion_dot": 0,
        "meta_mean_motion_ddot": 0,
        "tle_line1": "1 44476U 19049B   25354.86166985  .00000000  00000+0  00000+0 0  9994",
        "tle_line2": "2 44476   0.0243   2.9456 0001038 130.8681 328.0147  1.00269667 23345"
      },
      "geometry": {
        "type": "Point",
        "coordinates": [
          -148.86320274817027,
          -0.02540169263745342
        ]
      }
    },
    {
      "type": "Feature",
      "properties": {
        "norad_id": 46114,
        "name": "GALAXY 30 (G-30)",
        "group": "intelsat",
        "lat": 0.02459916967284271,
        "lon": 24.232639342784438,
        "alt_km": 35789.05045253506,
        "timestamp": "2025-12-21T03:56:50.522333+00:00",
        "meta_object_name": "GALAXY 30 (G-30)",
        "meta_object_id": "2020-056C",
        "meta_epoch": "2025-12-20T16:03:37.347264",
        "meta_mean_motion": 1.0027331,
        "meta_eccentricity": 0.0002034,
        "meta_inclination": 0.0182,
        "meta_ra_of_asc_node": 345.3857,
        "meta_arg_of_pericenter": 285.3913,
        "meta_mean_anomaly": 294.6471,
        "meta_ephemeris_type": 0,
        "meta_classification_type": "U",
        "meta_norad_cat_id": 46114,
        "meta_element_set_no": 999,
        "meta_rev_at_epoch": 1950,
        "meta_bstar": 0,
        "meta_mean_motion_dot": 6e-07,
        "meta_mean_motion_ddot": 0,
        "tle_line1": "1 46114U 20056C   25354.66918226  .00000060  00000+0  00000+0 0  9992",
        "tle_line2": "2 46114   0.0182 345.3857 0002034 285.3913 294.6471  1.00273310 19509"
      },
      "geometry": {
        "type": "Point",
        "coordinates": [
          24.232639342784438,
          0.02459916967284271
        ]
      }
    },
    {
      "type": "Feature",
      "properties": {
        "norad_id": 54026,
        "name": "GALAXY 33 (G-33)",
        "group": "intelsat",
        "lat": -0.0057210711765000345,
        "lon": 16.207726669885552,
        "alt_km": 35788.07182689335,
        "timestamp": "2025-12-21T03:56:50.522344+00:00",
        "meta_object_name": "GALAXY 33 (G-33)",
        "meta_object_id": "2022-128A",
        "meta_epoch": "2025-12-20T17:44:03.645312",
        "meta_mean_motion": 1.00271333,
        "meta_eccentricity": 0.000155,
        "meta_inclination": 0.0167,
        "meta_ra_of_asc_node": 44.0159,
        "meta_arg_of_pericenter": 225.3715,
        "meta_mean_anomaly": 313.1978,
        "meta_ephemeris_type": 0,
        "meta_classification_type": "U",
        "meta_norad_cat_id": 54026,
        "meta_element_set_no": 999,
        "meta_rev_at_epoch": 1195,
        "meta_bstar": 0,
        "meta_mean_motion_dot": 1.02e-06,
        "meta_mean_motion_ddot": 0,
        "tle_line1": "1 54026U 22128A   25354.73893108  .00000102  00000+0  00000+0 0  9991",
        "tle_line2": "2 54026   0.0167  44.0159 0001550 225.3715 313.1978  1.00271333 11950"
      },
      "geometry": {
        "type": "Point",
        "coordinates": [
          16.207726669885552,
          -0.0057210711765000345
        ]
      }
    },
    {
      "type": "Feature",
      "properties": {
        "norad_id": 54027,
        "name": "GALAXY 34 (G-34)",
        "group": "intelsat",
        "lat": 0.011008845489923192,
        "lon": 20.256076870017797,
        "alt_km": 35790.598185682524,
        "timestamp": "2025-12-21T03:56:50.522354+00:00",
        "meta_object_name": "GALAXY 34 (G-34)",
        "meta_object_id": "2022-128B",
        "meta_epoch": "2025-12-20T16:02:29.955264",
        "meta_mean_motion": 1.0026794,
        "meta_eccentricity": 0.0001742,
        "meta_inclination": 0.0233,
        "meta_ra_of_asc_node": 12.1424,
        "meta_arg_of_pericenter": 249.9166,
        "meta_mean_anomaly": 299.1202,
        "meta_ephemeris_type": 0,
        "meta_classification_type": "U",
        "meta_norad_cat_id": 54027,
        "meta_element_set_no": 999,
        "meta_rev_at_epoch": 1212,
        "meta_bstar": 0,
        "meta_mean_motion_dot": 0,
        "meta_mean_motion_ddot": 0,
        "tle_line1": "1 54027U 22128B   25354.66840226  .00000000  00000+0  00000+0 0  9994",
        "tle_line2": "2 54027   0.0233  12.1424 0001742 249.9166 299.1202  1.00267940 12123"
      },
      "geometry": {
        "type": "Point",
        "coordinates": [
          20.256076870017797,
          0.011008845489923192
        ]
      }
    },
    {
      "type": "Feature",
      "properties": {
        "norad_id": 54243,
        "name": "GALAXY 31 (G-31)",
        "group": "intelsat",
        "lat": -0.0040553845002613345,
        "lon": 28.204451464729527,
        "alt_km": 35788.1936077544,
        "timestamp": "2025-12-21T03:56:50.522365+00:00",
        "meta_object_name": "GALAXY 31 (G-31)",
        "meta_object_id": "2022-153A",
        "meta_epoch": "2025-12-20T16:04:44.740128",
        "meta_mean_motion": 1.0027114,
        "meta_eccentricity": 0.0001373,
        "meta_inclination": 0.0199,
        "meta_ra_of_asc_node": 83.2209,
        "meta_arg_of_pericenter": 195.4241,
        "meta_mean_anomaly": 291.0428,
        "meta_ephemeris_type": 0,
        "meta_classification_type": "U",
        "meta_norad_cat_id": 54243,
        "meta_element_set_no": 999,
        "meta_rev_at_epoch": 534,
        "meta_bstar": 0,
        "meta_mean_motion_dot": 3.7e-07,
        "meta_mean_motion_ddot": 0,
        "tle_line1": "1 54243U 22153A   25354.66996227  .00000037  00000+0  00000+0 0  9995",
        "tle_line2": "2 54243   0.0199  83.2209 0001373 195.4241 291.0428  1.00271140  5347"
      },
      "geometry": {
        "type": "Point",
        "coordinates": [
          28.204451464729527,
          -0.0040553845002613345
        ]
      }
    },
    {
      "type": "Feature",
      "properties": {
        "norad_id": 54244,
        "name": "GALAXY 32 (G-32)",
        "group": "intelsat",
        "lat": 0.028055965267107012,
        "lon": 58.2155734293305,
        "alt_km": 35787.637039080284,
        "timestamp": "2025-12-21T03:56:50.522375+00:00",
        "meta_object_name": "GALAXY 32 (G-32)",
        "meta_object_id": "2022-153B",
        "meta_epoch": "2025-12-20T11:05:05.936928",
        "meta_mean_motion": 1.00271078,
        "meta_eccentricity": 0.0001946,
        "meta_inclination": 0.012,
        "meta_ra_of_asc_node": 19.5385,
        "meta_arg_of_pericenter": 299.6546,
        "meta_mean_anomaly": 205.3828,
        "meta_ephemeris_type": 0,
        "meta_classification_type": "U",
        "meta_norad_cat_id": 54244,
        "meta_element_set_no": 999,
        "meta_rev_at_epoch": 1135,
        "meta_bstar": 0,
        "meta_mean_motion_dot": -1.51e-06,
        "meta_mean_motion_ddot": 0,
        "tle_line1": "1 54244U 22153B   25354.46187427 -.00000151  00000+0  00000+0 0  9996",
        "tle_line2": "2 54244   0.0120  19.5385 0001946 299.6546 205.3828  1.00271078 11350"
      },
      "geometry": {
        "type": "Point",
        "coordinates": [
          58.2155734293305,
          0.028055965267107012
        ]
      }
    }
  ]
}